[{"OBJECT_NAME":"VSP RF B1","OBJECT_ID":"2024-043AR","EPOCH":"2026-03-09T22:40:29.479296","MEAN_MOTION":15.26694159,"ECCENTRICITY":0.00102608,"INCLINATION":97.5446,"RA_OF_ASC_NODE":204.7052,"ARG_OF_PERICENTER":220.7435,"MEAN_ANOMALY":139.3037,"EPHEMERIS_TYPE":0,"CLASSIFICATION_TYPE":"U","NORAD_CAT_ID":59137,"ELEMENT_SET_NO":999,"REV_AT_EPOCH":11187,"BSTAR":0.00024406819,"MEAN_MOTION_DOT":6.341e-5,"MEAN_MOTION_DDOT":0},{"OBJECT_NAME":"STARLINK-32499","OBJECT_ID":"2024-210A","EPOCH":"2026-03-08T09:00:46.484064","MEAN_MOTION":15.27620371,"ECCENTRICITY":0.00030926,"INCLINATION":43.0084,"RA_OF_ASC_NODE":186.8514,"ARG_OF_PERICENTER":269.5015,"MEAN_ANOMALY":90.5482,"EPHEMERIS_TYPE":0,"CLASSIFICATION_TYPE":"U","NORAD_CAT_ID":61959,"ELEMENT_SET_NO":999,"REV_AT_EPOCH":7472,"BSTAR":0.0013881409,"MEAN_MOTION_DOT":0.00038184,"MEAN_MOTION_DDOT":0}]
